{
  "type": "Feature",
  "properties": {
    "id": "jtbc-seoul-marathon-2025-full",
    "name": "2025 JTBC 서울마라톤 풀코스 (근사치)",
    "distanceKm": 42.195,
    "color": "#e11d48",
    "note": "공식 GPX가 아닌, 공개된 코스 경유지 설명을 바탕으로 만든 근사 경로입니다. 실제 도로 선형과는 차이가 있을 수 있으니, 공식 코스 GPX를 구하면 이 파일만 교체하면 됩니다.",
    "waypoints": [
      { "km": 0,      "name": "상암 월드컵공원 (출발)" },
      { "km": 4.2,    "name": "합정역" },
      { "km": 5.5,    "name": "양화대교" },
      { "km": 7.0,    "name": "당산역" },
      { "km": 9.0,    "name": "여의도" },
      { "km": 11.5,   "name": "마포대교" },
      { "km": 14.0,   "name": "충정로" },
      { "km": 15.5,   "name": "시청" },
      { "km": 16.0,   "name": "청계광장" },
      { "km": 16.8,   "name": "종각역" },
      { "km": 19.0,   "name": "흥인지문(동대문)" },
      { "km": 20.5,   "name": "신설동역" },
      { "km": 27.0,   "name": "군자역" },
      { "km": 28.0,   "name": "서울어린이대공원" },
      { "km": 30.5,   "name": "잠실대교" },
      { "km": 32.0,   "name": "잠실역" },
      { "km": 34.5,   "name": "잠실종합운동장" },
      { "km": 36.0,   "name": "삼전역" },
      { "km": 38.0,   "name": "탄천1교 교차로" },
      { "km": 39.5,   "name": "수서IC" },
      { "km": 41.0,   "name": "방이역" },
      { "km": 42.195, "name": "올림픽공원 평화의광장 (도착)" }
    ]
  },
  "geometry": {
    "type": "LineString",
    "coordinates": [
      [126.8967, 37.5683],
      [126.9139, 37.5495],
      [126.9109, 37.5387],
      [126.9026, 37.5342],
      [126.9195, 37.5296],
      [126.9432, 37.5352],
      [126.9635, 37.5598],
      [126.9779, 37.5663],
      [126.9784, 37.5695],
      [126.9832, 37.5701],
      [127.0095, 37.5714],
      [127.0247, 37.5758],
      [127.0797, 37.5573],
      [127.0817, 37.5487],
      [127.0940, 37.5225],
      [127.1000, 37.5133],
      [127.0731, 37.5111],
      [127.0827, 37.5044],
      [127.1024, 37.4954],
      [127.1015, 37.4874],
      [127.1264, 37.5121],
      [127.1215, 37.5202]
    ]
  }
}
